[{"OBJECT_NAME":"STARLINK-30395","OBJECT_ID":"2023-138E","EPOCH":"2026-03-09T22:00:01.999584","MEAN_MOTION":15.26704896,"ECCENTRICITY":0.00013413,"INCLINATION":43.0011,"RA_OF_ASC_NODE":232.8338,"ARG_OF_PERICENTER":272.4288,"MEAN_ANOMALY":94.4771,"EPHEMERIS_TYPE":0,"CLASSIFICATION_TYPE":"U","NORAD_CAT_ID":57812,"ELEMENT_SET_NO":999,"REV_AT_EPOCH":578,"BSTAR":0.0026901843,"MEAN_MOTION_DOT":0.00072536,"MEAN_MOTION_DDOT":0},{"OBJECT_NAME":"FREGAT DEB","OBJECT_ID":"2011-037CA","EPOCH":"2026-03-09T14:50:33.280800","MEAN_MOTION":11.1879263,"ECCENTRICITY":0.1892682,"INCLINATION":51.5488,"RA_OF_ASC_NODE":250.7678,"ARG_OF_PERICENTER":39.8106,"MEAN_ANOMALY":332.7245,"EPHEMERIS_TYPE":0,"CLASSIFICATION_TYPE":"U","NORAD_CAT_ID":45840,"ELEMENT_SET_NO":999,"REV_AT_EPOCH":22544,"BSTAR":0.0057315,"MEAN_MOTION_DOT":0.00017987,"MEAN_MOTION_DDOT":0}]
